start=new Date('2022-01-29T00:00:00.000Z').valueOf();
sats=[{"PERIOD":"95.592","ECCENTRICITY":"0.00012560","MEAN_MOTION_DOT":"0.00000528","INCLINATION":"53.0561","MEAN_MOTION_DDOT":"0.0000000000000","SITE":"AFETR","CENTER_NAME":"EARTH","PERIAPSIS":"546.356","EPOCH":"2022-01-28T11:13:10.585632","OBJECT_NAME":"STARLINK-2503","CLASSIFICATION_TYPE":"U","GP_ID":"194844317","EPHEMERIS_TYPE":"0","RCS_SIZE":"LARGE","COUNTRY_CODE":"US","MEAN_ANOMALY":"295.2218","TLE_LINE1":"1 48151U 21027BM  22028.46748363  .00000528  00000-0  54329-4 0  9998","SEMIMAJOR_AXIS":"6925.361","LAUNCH_DATE":"2021-04-07","BSTAR":"0.00005432900000","RA_OF_ASC_NODE":"50.8717","APOAPSIS":"548.096","REF_FRAME":"TEME","NORAD_CAT_ID":"48151","REV_AT_EPOCH":"4643","DECAY_DATE":null,"TIME_SYSTEM":"UTC","OBJECT_TYPE":"PAYLOAD","MEAN_ELEMENT_THEORY":"SGP4","TLE_LINE2":"2 48151  53.0561  50.8717 0001256  64.8901 295.2218 15.06396015 46433","FILE":"3286235","ARG_OF_PERICENTER":"64.8901","ELEMENT_SET_NO":"999","MEAN_MOTION":"15.06396015","OBJECT_ID":"2021-027BM"},{"EPHEMERIS_TYPE":"0","COUNTRY_CODE":"US","RCS_SIZE":"LARGE","MEAN_ANOMALY":"347.3629","TLE_LINE1":"1 48276U 21036A   22028.91667824 -.00025680  00000-0 -17115-2 0  9996","SEMIMAJOR_AXIS":"6925.365","LAUNCH_DATE":"2021-04-29","BSTAR":"-0.00171150000000","RA_OF_ASC_NODE":"303.8457","MEAN_MOTION_DOT":"-0.00025680","ECCENTRICITY":"0.00017300","PERIOD":"95.592","INCLINATION":"53.0565","MEAN_MOTION_DDOT":"0.0000000000000","CENTER_NAME":"EARTH","SITE":"AFETR","GP_ID":"194817600","PERIAPSIS":"546.032","EPOCH":"2022-01-28T22:00:00.999936","CLASSIFICATION_TYPE":"U","OBJECT_NAME":"STARLINK-2567","ELEMENT_SET_NO":"999","MEAN_MOTION":"15.06394751","OBJECT_ID":"2021-036A","APOAPSIS":"548.428","REV_AT_EPOCH":"4318","DECAY_DATE":null,"REF_FRAME":"TEME","NORAD_CAT_ID":"48276","OBJECT_TYPE":"PAYLOAD","TIME_SYSTEM":"UTC","FILE":"3286005","ARG_OF_PERICENTER":"67.6207","MEAN_ELEMENT_THEORY":"SGP4","TLE_LINE2":"2 48276  53.0565 303.8457 0001730  67.6207 347.3629 15.06394751 43183"},{"MEAN_MOTION":"15.06410273","ELEMENT_SET_NO":"999","OBJECT_ID":"2021-036B","APOAPSIS":"548.913","DECAY_DATE":null,"REV_AT_EPOCH":"4367","NORAD_CAT_ID":"48277","REF_FRAME":"TEME","OBJECT_TYPE":"PAYLOAD","TIME_SYSTEM":"UTC","ARG_OF_PERICENTER":"65.1699","FILE":"3286052","MEAN_ELEMENT_THEORY":"SGP4","TLE_LINE2":"2 48277  53.0539 268.8326 0002499  65.1699 342.2765 15.06410273 43678","EPHEMERIS_TYPE":"0","COUNTRY_CODE":"US","RCS_SIZE":"LARGE","TLE_LINE1":"1 48277U 21036B   22028.91667824 -.00019694  00000-0 -13064-2 0  9994","MEAN_ANOMALY":"342.2765","RA_OF_ASC_NODE":"268.8326","BSTAR":"-0.00130640000000","LAUNCH_DATE":"2021-04-29","SEMIMAJOR_AXIS":"6925.317","MEAN_MOTION_DOT":"-0.00019694","ECCENTRICITY":"0.00024990","PERIOD":"95.591","MEAN_MOTION_DDOT":"0.0000000000000","INCLINATION":"53.0539","SITE":"AFETR","CENTER_NAME":"EARTH","GP_ID":"194818833","OBJECT_NAME":"STARLINK-2569","CLASSIFICATION_TYPE":"U","PERIAPSIS":"545.451","EPOCH":"2022-01-28T22:00:00.999936"},{"ELEMENT_SET_NO":"999","MEAN_MOTION":"15.05580351","OBJECT_ID":"2021-036C","TIME_SYSTEM":"UTC","OBJECT_TYPE":"PAYLOAD","TLE_LINE2":"2 48278  53.0551 283.9565 0002081  63.1178 149.2267 15.05580351  3585","MEAN_ELEMENT_THEORY":"SGP4","ARG_OF_PERICENTER":"63.1178","FILE":"3286235","APOAPSIS":"551.168","REF_FRAME":"TEME","NORAD_CAT_ID":"48278","REV_AT_EPOCH":"358","DECAY_DATE":null,"MEAN_ANOMALY":"149.2267","TLE_LINE1":"1 48278U 21036C   22028.91667824 -.00020907  00000-0 -14199-2 0  9994","LAUNCH_DATE":"2021-04-29","BSTAR":"-0.00141990000000","SEMIMAJOR_AXIS":"6927.862","RA_OF_ASC_NODE":"283.9565","EPHEMERIS_TYPE":"0","RCS_SIZE":"LARGE","COUNTRY_CODE":"US","SITE":"AFETR","CENTER_NAME":"EARTH","EPOCH":"2022-01-28T22:00:00.999936","PERIAPSIS":"548.285","CLASSIFICATION_TYPE":"U","OBJECT_NAME":"STARLINK-2543","GP_ID":"194844834","PERIOD":"95.644","MEAN_MOTION_DOT":"-0.00020907","ECCENTRICITY":"0.00020810","INCLINATION":"53.0551","MEAN_MOTION_DDOT":"0.0000000000000"},{"MEAN_MOTION_DOT":"-0.00020210","ECCENTRICITY":"0.00018750","PERIOD":"95.593","INCLINATION":"53.0562","MEAN_MOTION_DDOT":"0.0000000000000","CENTER_NAME":"EARTH","SITE":"AFETR","GP_ID":"194843582","EPOCH":"2022-01-28T22:00:00.999936","PERIAPSIS":"545.950","OBJECT_NAME":"STARLINK-2580","CLASSIFICATION_TYPE":"U","EPHEMERIS_TYPE":"0","COUNTRY_CODE":"US","RCS_SIZE":"LARGE","MEAN_ANOMALY":"186.8525","TLE_LINE1":"1 48279U 21036D   22028.91667824 -.00020210  00000-0 -13421-2 0  9999","LAUNCH_DATE":"2021-04-29","BSTAR":"-0.00134210000000","SEMIMAJOR_AXIS":"6925.383","RA_OF_ASC_NODE":"283.8508","APOAPSIS":"548.547","REV_AT_EPOCH":"358","DECAY_DATE":null,"REF_FRAME":"TEME","NORAD_CAT_ID":"48279","OBJECT_TYPE":"PAYLOAD","TIME_SYSTEM":"UTC","ARG_OF_PERICENTER":"58.1087","FILE":"3286235","TLE_LINE2":"2 48279  53.0562 283.8508 0001875  58.1087 186.8525 15.06388603  3588","MEAN_ELEMENT_THEORY":"SGP4","ELEMENT_SET_NO":"999","MEAN_MOTION":"15.06388603","OBJECT_ID":"2021-036D"},{"EPOCH":"2022-01-28T20:45:44.884512","PERIAPSIS":"546.069","CLASSIFICATION_TYPE":"U","OBJECT_NAME":"STARLINK-2565","GP_ID":"194843832","CENTER_NAME":"EARTH","SITE":"AFETR","INCLINATION":"53.0563","MEAN_MOTION_DDOT":"0.0000000000000","PERIOD":"95.592","ECCENTRICITY":"0.00016500","MEAN_MOTION_DOT":"-0.00000696","LAUNCH_DATE":"2021-04-29","BSTAR":"-0.00002780800000","SEMIMAJOR_AXIS":"6925.347","RA_OF_ASC_NODE":"354.0706","MEAN_ANOMALY":"291.8430","TLE_LINE1":"1 48280U 21036E   22028.86510283 -.00000696  00000-0 -27808-4 0  9993","RCS_SIZE":"LARGE","COUNTRY_CODE":"US","EPHEMERIS_TYPE":"0","TLE_LINE2":"2 48280  53.0563 354.0706 0001650  68.2735 291.8430 15.06400504 41898","MEAN_ELEMENT_THEORY":"SGP4","FILE":"3286235","ARG_OF_PERICENTER":"68.2735","TIME_SYSTEM":"UTC","OBJECT_TYPE":"PAYLOAD","REF_FRAME":"TEME","NORAD_CAT_ID":"48280","REV_AT_EPOCH":"4189","DECAY_DATE":null,"APOAPSIS":"548.355","OBJECT_ID":"2021-036E","ELEMENT_SET_NO":"999","MEAN_MOTION":"15.06400504"},{"REF_FRAME":"TEME","NORAD_CAT_ID":"48281","REV_AT_EPOCH":"4216","DECAY_DATE":null,"APOAPSIS":"548.416","TLE_LINE2":"2 48281  53.0560 334.3206 0001743  66.1501 293.9671 15.06401399 42167","MEAN_ELEMENT_THEORY":"SGP4","FILE":"3286235","ARG_OF_PERICENTER":"66.1501","TIME_SYSTEM":"UTC","OBJECT_TYPE":"PAYLOAD","OBJECT_ID":"2021-036F","ELEMENT_SET_NO":"999","MEAN_MOTION":"15.06401399","INCLINATION":"53.0560","MEAN_MOTION_DDOT":"0.0000000000000","PERIOD":"95.592","ECCENTRICITY":"0.00017430","MEAN_MOTION_DOT":"-0.00000472","PERIAPSIS":"546.002","EPOCH":"2022-01-28T19:28:46.845984","OBJECT_NAME":"STARLINK-2520","CLASSIFICATION_TYPE":"U","GP_ID":"194844584","CENTER_NAME":"EARTH","SITE":"AFETR","RCS_SIZE":"LARGE","COUNTRY_CODE":"US","EPHEMERIS_TYPE":"0","LAUNCH_DATE":"2021-04-29","SEMIMAJOR_AXIS":"6925.344","BSTAR":"-0.00001275200000","RA_OF_ASC_NODE":"334.3206","MEAN_ANOMALY":"293.9671","TLE_LINE1":"1 48281U 21036F   22028.81165331 -.00000472  00000-0 -12752-4 0  9993"},{"LAUNCH_DATE":"2021-04-29","BSTAR":"-0.00003628100000","SEMIMAJOR_AXIS":"6925.369","RA_OF_ASC_NODE":"340.4165","MEAN_ANOMALY":"295.4721","TLE_LINE1":"1 48282U 21036G   22028.56977166 -.00000822  00000-0 -36281-4 0  9995","COUNTRY_CODE":"US","RCS_SIZE":"LARGE","EPHEMERIS_TYPE":"0","GP_ID":"194845334","PERIAPSIS":"545.974","EPOCH":"2022-01-28T13:40:28.271424","CLASSIFICATION_TYPE":"U","OBJECT_NAME":"STARLINK-2558","SITE":"AFETR","CENTER_NAME":"EARTH","INCLINATION":"53.0550","MEAN_MOTION_DDOT":"0.0000000000000","MEAN_MOTION_DOT":"-0.00000822","ECCENTRICITY":"0.00018190","PERIOD":"95.593","OBJECT_ID":"2021-036G","ELEMENT_SET_NO":"999","MEAN_MOTION":"15.06393443","FILE":"3286235","ARG_OF_PERICENTER":"64.6457","MEAN_ELEMENT_THEORY":"SGP4","TLE_LINE2":"2 48282  53.0550 340.4165 0001819  64.6457 295.4721 15.06393443 42068","OBJECT_TYPE":"PAYLOAD","TIME_SYSTEM":"UTC","REV_AT_EPOCH":"4206","DECAY_DATE":null,"REF_FRAME":"TEME","NORAD_CAT_ID":"48282","APOAPSIS":"548.493"},{"TLE_LINE1":"1 48283U 21036H   22028.83146266  .00000593  00000-0  58680-4 0  9995","MEAN_ANOMALY":"299.6047","RA_OF_ASC_NODE":"339.2410","BSTAR":"0.00005868000000","LAUNCH_DATE":"2021-04-29","SEMIMAJOR_AXIS":"6925.346","EPHEMERIS_TYPE":"0","COUNTRY_CODE":"US","RCS_SIZE":"LARGE","CENTER_NAME":"EARTH","SITE":"AFETR","GP_ID":"194844082","OBJECT_NAME":"STARLINK-2516","CLASSIFICATION_TYPE":"U","EPOCH":"2022-01-28T19:57:18.373824","PERIAPSIS":"545.942","ECCENTRICITY":"0.00018330","MEAN_MOTION_DOT":"0.00000593","PERIOD":"95.592","MEAN_MOTION_DDOT":"0.0000000000000","INCLINATION":"53.0550","MEAN_MOTION":"15.06400698","ELEMENT_SET_NO":"999","OBJECT_ID":"2021-036H","OBJECT_TYPE":"PAYLOAD","TIME_SYSTEM":"UTC","ARG_OF_PERICENTER":"60.5125","FILE":"3286235","TLE_LINE2":"2 48283  53.0550 339.2410 0001833  60.5125 299.6047 15.06400698 42104","MEAN_ELEMENT_THEORY":"SGP4","APOAPSIS":"548.481","DECAY_DATE":null,"REV_AT_EPOCH":"4210","NORAD_CAT_ID":"48283","REF_FRAME":"TEME"},{"TLE_LINE1":"1 48284U 21036J   22028.82779168 -.00001460  00000-0 -79147-4 0  9995","MEAN_ANOMALY":"297.0293","RA_OF_ASC_NODE":"339.2394","LAUNCH_DATE":"2021-04-29","SEMIMAJOR_AXIS":"6925.387","BSTAR":"-0.00007914700000","EPHEMERIS_TYPE":"0","COUNTRY_CODE":"US","RCS_SIZE":"LARGE","SITE":"AFETR","CENTER_NAME":"EARTH","GP_ID":"194844332","OBJECT_NAME":"STARLINK-2564","CLASSIFICATION_TYPE":"U","PERIAPSIS":"546.051","EPOCH":"2022-01-28T19:52:01.201152","MEAN_MOTION_DOT":"-0.00001460","ECCENTRICITY":"0.00017340","PERIOD":"95.593","MEAN_MOTION_DDOT":"0.0000000000000","INCLINATION":"53.0565","MEAN_MOTION":"15.06387573","ELEMENT_SET_NO":"999","OBJECT_ID":"2021-036J","OBJECT_TYPE":"PAYLOAD","TIME_SYSTEM":"UTC","FILE":"3286235","ARG_OF_PERICENTER":"63.0873","TLE_LINE2":"2 48284  53.0565 339.2394 0001734  63.0873 297.0293 15.06387573 42099","MEAN_ELEMENT_THEORY":"SGP4","APOAPSIS":"548.453","DECAY_DATE":null,"REV_AT_EPOCH":"4209","NORAD_CAT_ID":"48284","REF_FRAME":"TEME"}];
